MAKERSAT 0              
1 43016U 17073D   26068.63673096  .00023659  00000+0  71590-3 0  9993
2 43016  97.4777 310.6155 0115258 266.0743  92.7313 15.27797199451246
ISAT                    
1 43879U 18111D   26068.72378276  .00060631  00000+0  10351-2 0  9994
2 43879  97.5900 357.4744 0002734 333.2422  26.8688 15.51117886395684
