[{"OBJECT_NAME":"MAKERSAT 0","OBJECT_ID":"2017-073D","EPOCH":"2026-03-09T15:16:53.554944","MEAN_MOTION":15.27797199,"ECCENTRICITY":0.0115258,"INCLINATION":97.4777,"RA_OF_ASC_NODE":310.6155,"ARG_OF_PERICENTER":266.0743,"MEAN_ANOMALY":92.7313,"EPHEMERIS_TYPE":0,"CLASSIFICATION_TYPE":"U","NORAD_CAT_ID":43016,"ELEMENT_SET_NO":999,"REV_AT_EPOCH":45124,"BSTAR":0.0007159,"MEAN_MOTION_DOT":0.00023659,"MEAN_MOTION_DDOT":0},{"OBJECT_NAME":"ISAT","OBJECT_ID":"2018-111D","EPOCH":"2026-03-09T17:22:14.830464","MEAN_MOTION":15.51117886,"ECCENTRICITY":0.00027337,"INCLINATION":97.59,"RA_OF_ASC_NODE":357.4744,"ARG_OF_PERICENTER":333.2422,"MEAN_ANOMALY":26.8688,"EPHEMERIS_TYPE":0,"CLASSIFICATION_TYPE":"U","NORAD_CAT_ID":43879,"ELEMENT_SET_NO":999,"REV_AT_EPOCH":39568,"BSTAR":0.0010351444,"MEAN_MOTION_DOT":0.00060631,"MEAN_MOTION_DDOT":0}]
